start=new Date('2021-12-18T00:00:00.000Z').valueOf();
sats=[{"MEAN_ELEMENT_THEORY":"SGP4","PERIAPSIS":"357.496","CENTER_NAME":"EARTH","REV_AT_EPOCH":"369","NORAD_CAT_ID":"49140","MEAN_ANOMALY":"284.4517","OBJECT_TYPE":"PAYLOAD","GP_ID":"191904837","OBJECT_NAME":"STARLINK-3118","TLE_LINE2":"2 49140  69.9976 220.4234 0003336 275.0381 284.4517 15.69704925  3691","FILE":"3243045","SEMIMAJOR_AXIS":"6737.878","OBJECT_ID":"2021-082L","RCS_SIZE":"LARGE","ARG_OF_PERICENTER":"275.0381","CLASSIFICATION_TYPE":"U","RA_OF_ASC_NODE":"220.4234","PERIOD":"91.737","EPHEMERIS_TYPE":"0","BSTAR":"-0.00000940520000","MEAN_MOTION_DDOT":"0.0000000000000","MEAN_MOTION_DOT":"-0.00001333","DECAY_DATE":null,"ELEMENT_SET_NO":"999","SITE":"AFWTR","ECCENTRICITY":"0.00033360","REF_FRAME":"TEME","COUNTRY_CODE":"US","INCLINATION":"69.9976","TLE_LINE1":"1 49140U 21082L   21351.91667824 -.00001333  00000-0 -94052-5 0  9993","EPOCH":"2021-12-17T22:00:00.999936","APOAPSIS":"361.991","LAUNCH_DATE":"2021-09-14","TIME_SYSTEM":"UTC","MEAN_MOTION":"15.69704925"},{"MEAN_MOTION_DDOT":"0.0000000000000","MEAN_MOTION_DOT":"-0.00666034","PERIOD":"94.982","BSTAR":"-0.03684400000000","EPHEMERIS_TYPE":"0","ECCENTRICITY":"0.00032990","REF_FRAME":"TEME","DECAY_DATE":null,"ELEMENT_SET_NO":"999","SITE":"AFWTR","APOAPSIS":"519.976","COUNTRY_CODE":"US","INCLINATION":"70.0002","TLE_LINE1":"1 49141U 21082M   21351.91667824 -.00666034  00000-0 -36844-1 0  9990","EPOCH":"2021-12-17T22:00:00.999936","MEAN_MOTION":"15.16080767","LAUNCH_DATE":"2021-09-14","TIME_SYSTEM":"UTC","MEAN_ELEMENT_THEORY":"SGP4","PERIAPSIS":"515.426","MEAN_ANOMALY":"185.4737","CENTER_NAME":"EARTH","REV_AT_EPOCH":"364","NORAD_CAT_ID":"49141","OBJECT_NAME":"STARLINK-3093","TLE_LINE2":"2 49141  70.0002 224.7741 0003299 277.4570 185.4737 15.16080767  3641","FILE":"3243045","SEMIMAJOR_AXIS":"6895.836","OBJECT_TYPE":"PAYLOAD","GP_ID":"191903824","RA_OF_ASC_NODE":"224.7741","OBJECT_ID":"2021-082M","RCS_SIZE":"LARGE","ARG_OF_PERICENTER":"277.4570","CLASSIFICATION_TYPE":"U"},{"PERIOD":"91.733","BSTAR":"-0.00058035000000","EPHEMERIS_TYPE":"0","MEAN_MOTION_DDOT":"0.0000000000000","MEAN_MOTION_DOT":"-0.00068992","DECAY_DATE":null,"ELEMENT_SET_NO":"999","SITE":"AFWTR","ECCENTRICITY":"0.00037800","REF_FRAME":"TEME","COUNTRY_CODE":"US","INCLINATION":"69.9982","EPOCH":"2021-12-17T22:00:00.999936","TLE_LINE1":"1 49142U 21082N   21351.91667824 -.00068992  00000-0 -58035-3 0  9998","APOAPSIS":"362.104","LAUNCH_DATE":"2021-09-14","TIME_SYSTEM":"UTC","MEAN_MOTION":"15.69770131","MEAN_ELEMENT_THEORY":"SGP4","PERIAPSIS":"357.010","CENTER_NAME":"EARTH","REV_AT_EPOCH":"369","NORAD_CAT_ID":"49142","MEAN_ANOMALY":"287.8886","OBJECT_TYPE":"PAYLOAD","GP_ID":"191904027","OBJECT_NAME":"STARLINK-3042","FILE":"3243045","TLE_LINE2":"2 49142  69.9982 220.4266 0003780 273.6820 287.8886 15.69770131  3698","SEMIMAJOR_AXIS":"6737.692","OBJECT_ID":"2021-082N","RCS_SIZE":"LARGE","ARG_OF_PERICENTER":"273.6820","CLASSIFICATION_TYPE":"U","RA_OF_ASC_NODE":"220.4266"},{"RCS_SIZE":"LARGE","ARG_OF_PERICENTER":"273.0129","OBJECT_ID":"2021-082P","CLASSIFICATION_TYPE":"U","RA_OF_ASC_NODE":"220.4251","OBJECT_TYPE":"PAYLOAD","GP_ID":"191905039","OBJECT_NAME":"STARLINK-3109","FILE":"3243045","TLE_LINE2":"2 49143  69.9983 220.4251 0003447 273.0129 290.5744 15.69691768  3692","SEMIMAJOR_AXIS":"6737.916","CENTER_NAME":"EARTH","NORAD_CAT_ID":"49143","REV_AT_EPOCH":"369","MEAN_ANOMALY":"290.5744","MEAN_ELEMENT_THEORY":"SGP4","PERIAPSIS":"357.458","LAUNCH_DATE":"2021-09-14","TIME_SYSTEM":"UTC","MEAN_MOTION":"15.69691768","COUNTRY_CODE":"US","EPOCH":"2021-12-17T22:00:00.999936","TLE_LINE1":"1 49143U 21082P   21351.91667824  .00026379  00000-0  22258-3 0  9998","INCLINATION":"69.9983","APOAPSIS":"362.103","DECAY_DATE":null,"ELEMENT_SET_NO":"999","SITE":"AFWTR","ECCENTRICITY":"0.00034470","REF_FRAME":"TEME","PERIOD":"91.738","EPHEMERIS_TYPE":"0","BSTAR":"0.00022258000000","MEAN_MOTION_DDOT":"0.0000000000000","MEAN_MOTION_DOT":"0.00026379"},{"GP_ID":"191905241","OBJECT_TYPE":"PAYLOAD","TLE_LINE2":"2 49144  70.0001 224.7741 0003262 277.9347 204.0527 15.16141731  3644","SEMIMAJOR_AXIS":"6895.652","FILE":"3243045","OBJECT_NAME":"STARLINK-3100","CLASSIFICATION_TYPE":"U","OBJECT_ID":"2021-082Q","ARG_OF_PERICENTER":"277.9347","RCS_SIZE":"LARGE","RA_OF_ASC_NODE":"224.7741","PERIAPSIS":"515.267","MEAN_ELEMENT_THEORY":"SGP4","REV_AT_EPOCH":"364","NORAD_CAT_ID":"49144","CENTER_NAME":"EARTH","MEAN_ANOMALY":"204.0527","INCLINATION":"70.0001","TLE_LINE1":"1 49144U 21082Q   21351.91667824 -.00665623  00000-0 -36756-1 0  9998","EPOCH":"2021-12-17T22:00:00.999936","COUNTRY_CODE":"US","APOAPSIS":"519.766","TIME_SYSTEM":"UTC","LAUNCH_DATE":"2021-09-14","MEAN_MOTION":"15.16141731","EPHEMERIS_TYPE":"0","BSTAR":"-0.03675600000000","PERIOD":"94.978","MEAN_MOTION_DDOT":"0.0000000000000","MEAN_MOTION_DOT":"-0.00665623","SITE":"AFWTR","DECAY_DATE":null,"ELEMENT_SET_NO":"999","REF_FRAME":"TEME","ECCENTRICITY":"0.00032620"},{"SITE":"AFWTR","ELEMENT_SET_NO":"999","DECAY_DATE":null,"REF_FRAME":"TEME","ECCENTRICITY":"0.00037040","BSTAR":"0.00023142000000","EPHEMERIS_TYPE":"0","PERIOD":"91.735","MEAN_MOTION_DDOT":"0.0000000000000","MEAN_MOTION_DOT":"0.00027485","TIME_SYSTEM":"UTC","LAUNCH_DATE":"2021-09-14","MEAN_MOTION":"15.69730797","INCLINATION":"69.9989","TLE_LINE1":"1 49145U 21082R   21351.91667824  .00027485  00000-0  23142-3 0  9992","EPOCH":"2021-12-17T22:00:00.999936","COUNTRY_CODE":"US","APOAPSIS":"362.165","REV_AT_EPOCH":"369","NORAD_CAT_ID":"49145","CENTER_NAME":"EARTH","MEAN_ANOMALY":"299.6316","PERIAPSIS":"357.174","MEAN_ELEMENT_THEORY":"SGP4","CLASSIFICATION_TYPE":"U","OBJECT_ID":"2021-082R","ARG_OF_PERICENTER":"272.5395","RCS_SIZE":"LARGE","RA_OF_ASC_NODE":"220.4030","GP_ID":"191904230","OBJECT_TYPE":"PAYLOAD","TLE_LINE2":"2 49145  69.9989 220.4030 0003704 272.5395 299.6316 15.69730797  3691","SEMIMAJOR_AXIS":"6737.804","FILE":"3243045","OBJECT_NAME":"STARLINK-3119"},{"PERIAPSIS":"357.295","MEAN_ELEMENT_THEORY":"SGP4","NORAD_CAT_ID":"49146","REV_AT_EPOCH":"369","CENTER_NAME":"EARTH","MEAN_ANOMALY":"299.7223","GP_ID":"191904432","OBJECT_TYPE":"PAYLOAD","TLE_LINE2":"2 49146  69.9979 220.4131 0003577 270.3201 299.7223 15.69718219  3696","FILE":"3243045","SEMIMAJOR_AXIS":"6737.840","OBJECT_NAME":"STARLINK-3116","CLASSIFICATION_TYPE":"U","RCS_SIZE":"LARGE","ARG_OF_PERICENTER":"270.3201","OBJECT_ID":"2021-082S","RA_OF_ASC_NODE":"220.4131","BSTAR":"0.00024073000000","EPHEMERIS_TYPE":"0","PERIOD":"91.736","MEAN_MOTION_DDOT":"0.0000000000000","MEAN_MOTION_DOT":"0.00028587","SITE":"AFWTR","ELEMENT_SET_NO":"999","DECAY_DATE":null,"REF_FRAME":"TEME","ECCENTRICITY":"0.00035770","TLE_LINE1":"1 49146U 21082S   21351.91667824  .00028587  00000-0  24073-3 0  9991","EPOCH":"2021-12-17T22:00:00.999936","INCLINATION":"69.9979","COUNTRY_CODE":"US","APOAPSIS":"362.115","TIME_SYSTEM":"UTC","LAUNCH_DATE":"2021-09-14","MEAN_MOTION":"15.69718219"},{"COUNTRY_CODE":"US","INCLINATION":"69.9986","EPOCH":"2021-12-17T22:00:00.999936","TLE_LINE1":"1 49147U 21082T   21351.91667824  .00028113  00000-0  23663-3 0  9991","APOAPSIS":"361.880","LAUNCH_DATE":"2021-09-14","TIME_SYSTEM":"UTC","MEAN_MOTION":"15.69734977","PERIOD":"91.735","BSTAR":"0.00023663000000","EPHEMERIS_TYPE":"0","MEAN_MOTION_DDOT":"0.0000000000000","MEAN_MOTION_DOT":"0.00028113","ELEMENT_SET_NO":"999","DECAY_DATE":null,"SITE":"AFWTR","ECCENTRICITY":"0.00032990","REF_FRAME":"TEME","OBJECT_TYPE":"PAYLOAD","GP_ID":"191904635","OBJECT_NAME":"STARLINK-3071","FILE":"3243045","TLE_LINE2":"2 49147  69.9986 220.4122 0003299 272.6370 293.1819 15.69734977  3696","SEMIMAJOR_AXIS":"6737.792","OBJECT_ID":"2021-082T","ARG_OF_PERICENTER":"272.6370","RCS_SIZE":"LARGE","CLASSIFICATION_TYPE":"U","RA_OF_ASC_NODE":"220.4122","MEAN_ELEMENT_THEORY":"SGP4","PERIAPSIS":"357.434","CENTER_NAME":"EARTH","REV_AT_EPOCH":"369","NORAD_CAT_ID":"49147","MEAN_ANOMALY":"293.1819"},{"PERIAPSIS":"357.269","MEAN_ELEMENT_THEORY":"SGP4","MEAN_ANOMALY":"194.3192","REV_AT_EPOCH":"1609","NORAD_CAT_ID":"49148","CENTER_NAME":"EARTH","TLE_LINE2":"2 49148  69.9982 220.6422 0003400 271.4477 194.3192 15.69768864 16093","SEMIMAJOR_AXIS":"6737.695","FILE":"3242809","OBJECT_NAME":"STARLINK-3048","GP_ID":"191875981","OBJECT_TYPE":"PAYLOAD","RA_OF_ASC_NODE":"220.6422","CLASSIFICATION_TYPE":"U","OBJECT_ID":"2021-082U","RCS_SIZE":"LARGE","ARG_OF_PERICENTER":"271.4477","MEAN_MOTION_DDOT":"0.0000000000000","MEAN_MOTION_DOT":"-0.00098681","BSTAR":"-0.00083391000000","EPHEMERIS_TYPE":"0","PERIOD":"91.733","REF_FRAME":"TEME","ECCENTRICITY":"0.00034000","SITE":"AFWTR","DECAY_DATE":null,"ELEMENT_SET_NO":"999","APOAPSIS":"361.851","INCLINATION":"69.9982","TLE_LINE1":"1 49148U 21082U   21351.83335648 -.00098681  00000-0 -83391-3 0  9992","EPOCH":"2021-12-17T20:00:01.999872","COUNTRY_CODE":"US","MEAN_MOTION":"15.69768864","TIME_SYSTEM":"UTC","LAUNCH_DATE":"2021-09-14"},{"OBJECT_TYPE":"PAYLOAD","GP_ID":"191903825","OBJECT_NAME":"STARLINK-3053","TLE_LINE2":"2 49149  70.0000 224.7761 0003241 283.5820 300.3489 15.14249607  3642","SEMIMAJOR_AXIS":"6901.395","FILE":"3243045","OBJECT_ID":"2021-082V","RCS_SIZE":"LARGE","ARG_OF_PERICENTER":"283.5820","CLASSIFICATION_TYPE":"U","RA_OF_ASC_NODE":"224.7761","MEAN_ELEMENT_THEORY":"SGP4","PERIAPSIS":"521.023","CENTER_NAME":"EARTH","REV_AT_EPOCH":"364","NORAD_CAT_ID":"49149","MEAN_ANOMALY":"300.3489","COUNTRY_CODE":"US","INCLINATION":"70.0000","EPOCH":"2021-12-17T22:00:00.999936","TLE_LINE1":"1 49149U 21082V   21351.91667824 -.00662692  00000-0 -38603-1 0  9999","APOAPSIS":"525.496","LAUNCH_DATE":"2021-09-14","TIME_SYSTEM":"UTC","MEAN_MOTION":"15.14249607","PERIOD":"95.097","EPHEMERIS_TYPE":"0","BSTAR":"-0.03860300000000","MEAN_MOTION_DDOT":"0.0000000000000","MEAN_MOTION_DOT":"-0.00662692","DECAY_DATE":null,"ELEMENT_SET_NO":"999","SITE":"AFWTR","ECCENTRICITY":"0.00032410","REF_FRAME":"TEME"}];
